[{"OBJECT_NAME":"STARLINK-4251","OBJECT_ID":"2022-077AS","EPOCH":"2026-03-09T22:52:43.813632","MEAN_MOTION":15.05645532,"ECCENTRICITY":0.00019401,"INCLINATION":97.6019,"RA_OF_ASC_NODE":251.4402,"ARG_OF_PERICENTER":87.1525,"MEAN_ANOMALY":272.9924,"EPHEMERIS_TYPE":0,"CLASSIFICATION_TYPE":"U","NORAD_CAT_ID":53083,"ELEMENT_SET_NO":999,"REV_AT_EPOCH":20102,"BSTAR":-3.0036315e-5,"MEAN_MOTION_DOT":-4.94e-6,"MEAN_MOTION_DDOT":0},{"OBJECT_NAME":"TIUNGSAT-1 (MO-46)","OBJECT_ID":"2000-057D","EPOCH":"2026-03-09T15:36:52.176096","MEAN_MOTION":15.01128781,"ECCENTRICITY":0.003692,"INCLINATION":64.5465,"RA_OF_ASC_NODE":82.7132,"ARG_OF_PERICENTER":302.2682,"MEAN_ANOMALY":57.4857,"EPHEMERIS_TYPE":0,"CLASSIFICATION_TYPE":"U","NORAD_CAT_ID":26548,"ELEMENT_SET_NO":999,"REV_AT_EPOCH":38128,"BSTAR":0.00030184,"MEAN_MOTION_DOT":3.762e-5,"MEAN_MOTION_DDOT":0}]
